TWILIGHT AG             
1 67393U 26004AG  26037.92149387  .00015851  00000+0  78077-3 0  9992
2 67393  97.4576  38.9095 0007481  79.0168 281.1907 15.18022829  3990
TWILIGHT AH             
1 67394U 26004AH  26037.97922930  .00010382  00000+0  50886-3 0  9993
2 67394  97.4475  38.9330 0010744  73.8956 286.3460 15.18274410  4003
TWILIGHT AJ             
1 67395U 26004AJ  26037.97800852  .00002599  00000+0  29048-3 0  9999
2 67395  97.8015  38.7054 0005029 181.6191 178.5010 14.87805063  3919
TWILIGHT AK             
1 67396U 26004AK  26037.98638847  .00011641  00000+0  57717-3 0  9996
2 67396  97.4511  38.9366 0008807  74.1574 286.0630 15.17857495  4007
CARBSAR                 
1 67397U 26004AL  26037.98851394  .00012912  00000+0  63970-3 0  9991
2 67397  97.4533  38.9418 0007959  78.2817 281.9310 15.17865374  4006
TWILIGHT AM             
1 67398U 26004AM  26037.98511744  .00011918  00000+0  58887-3 0  9990
2 67398  97.4569  38.9586 0008825  82.5879 277.6357 15.17971642  4000
TWILIGHT AN             
1 67399U 26004AN  26037.98242033  .00006480  00000+0  32053-3 0  9998
2 67399  97.4558  38.9582 0009616  82.3260 277.9066 15.18118090  4007
CONNECTA IOT-13         
1 67400U 26004AP  26037.97744488  .00008624  00000+0  42440-3 0  9994
2 67400  97.4557  38.9642 0011016  81.3034 278.9448 15.18184197  4007
CONNECTA IOT-14         
1 67401U 26004AQ  26037.97532996  .00017427  00000+0  84491-3 0  9997
2 67401  97.4490  38.9472 0011996  78.6278 281.6303 15.18516193  4007
CONNECTA IOT-15         
1 67402U 26004AR  26037.93713990 -.00016935  00000+0 -86256-3 0  9995
2 67402  97.4561  38.8669 0004618  71.8379 288.3357 15.16739164  3986
SHIJIAN-29B (SJ-29B)    
1 67403U 25315C   26037.85428982 -.00000065  00000+0  00000+0 0  9990
2 67403   3.0678  98.5205 0002361 312.6229 106.4775  1.00272215   383
STARLINK-36484          
1 67404U 26005A   26037.91671296  .00113290  00000+0  26835-2 0  9994
2 67404  43.0008  54.5726 0001642 265.7228 247.1916 15.40652074  5191
STARLINK-36452          
1 67405U 26005B   26037.47971864  .00131252  00000+0  22014-2 0  9993
2 67405  43.0004  56.8141 0001767 268.4502  91.6156 15.50635221  3896
STARLINK-36409          
1 67406U 26005C   26037.91671296  .00078329  00000+0  18675-2 0  9992
2 67406  42.9999  54.3594 0001317 276.1271 323.9432 15.40630519  5246
STARLINK-36510          
1 67407U 26005D   26037.92995181  .00151554  00000+0  25341-2 0  9996
2 67407  43.0001  54.1721 0001513 243.5545 116.5160 15.50637948  3968
STARLINK-36509          
1 67408U 26005E   26037.91671296 -.01993957  00000+0 -45001-1 0  9992
2 67408  42.9999  54.2658 0001033 252.0209  27.1524 15.45819706  5244
STARLINK-36507          
1 67409U 26005F   26037.47835660  .00088953  00000+0  15046-2 0  9996
2 67409  42.9998  56.8027 0001366 272.2364  87.8340 15.50583937  3895
STARLINK-36508          
1 67410U 26005G   26037.91671296  .00077376  00000+0  18439-2 0  9996
2 67410  43.0004  54.4811 0001513 255.4547 294.8098 15.40649209  5247
STARLINK-36503          
1 67411U 26005H   26037.92857322  .00131834  00000+0  22100-2 0  9994
2 67411  42.9999  54.1608 0001299 256.1516 103.9200 15.50646584  3961
STARLINK-36446          
1 67412U 26005J   26036.18911721 -.00242506  00000+0 -43537-2 0  9994
2 67412  42.9999  64.3297 0000465 298.0126  62.0687 15.49952014  3695
STARLINK-36442          
1 67413U 26005K   26037.47705112 -.00215619  00000+0 -38327-2 0  9999
2 67413  42.9995  56.7906 0001428 304.3441  55.7284 15.50127677  3890
STARLINK-36506          
1 67414U 26005L   26037.41222504  .00076288  00000+0  12936-2 0  9996
2 67414  43.0011  57.1661 0001787 272.3621  87.7035 15.50578640  3885
STARLINK-36468          
1 67415U 26005M   26037.54071355  .00086661  00000+0  14660-2 0  9999
2 67415  43.0000  56.4092 0001527 263.9257  96.1429 15.50592500  3902
STARLINK-36487          
1 67416U 26005N   26037.91671296  .00103410  00000+0  24544-2 0  9995
2 67416  43.0002  54.4193 0001449 262.2420 312.9125 15.40637677  5247
STARLINK-36374          
1 67417U 26005P   26037.47560894  .00062418  00000+0  10603-2 0  9991
2 67417  42.9996  56.7795 0001337 272.9449  87.1258 15.50607058  3894
STARLINK-36455          
1 67418U 26005Q   26037.53968286  .00127711  00000+0  21473-2 0  9991
2 67418  42.9994  56.4005 0001774 254.3271 105.7393 15.50579800  3908
STARLINK-36424          
1 67419U 26005R   26036.50868968  .00121663  00000+0  20442-2 0  9999
2 67419  42.9997  62.4237 0001334 252.7307 107.3407 15.50625233  3748
STARLINK-35564          
1 67420U 26005S   26037.53899899  .00083452  00000+0  14129-2 0  9990
2 67420  42.9997  56.3951 0001412 267.7089  92.3610 15.50584629  3905
STARLINK-36431          
1 67421U 26005T   26037.91671296  .00101184  00000+0  24073-2 0  9994
2 67421  43.0006  54.4482 0001535 259.0715 303.7847 15.40576491  5037
STARLINK-36418          
1 67422U 26005U   26037.91671296 -.02037945  00000+0 -43991-1 0  9991
2 67422  43.0001  54.1872 0001092 260.5631  49.7462 15.47171350  5194
STARLINK-36465          
1 67423U 26005V   26037.91671296 -.00006926  00000+0 -15863-3 0  9994
2 67423  43.0003  54.3878 0000799 293.6487 293.9074 15.40714356  4984
STARLINK-36362          
1 67424U 26005W   26037.91671296  .00104812  00000+0  24873-2 0  9996
2 67424  42.9999  54.3276 0000852 276.2265 336.2582 15.40635686  5243
STARLINK-36447          
1 67425U 26005X   26037.91671296  .00081575  00000+0  19439-2 0  9999
2 67425  43.0003  54.2656 0000819 280.5226 356.8710 15.40628667  5243
STARLINK-36146          
1 67426U 26005Y   26037.40811104  .00068707  00000+0  11673-2 0  9992
2 67426  43.0002  57.1307 0001420 263.9674  96.1024 15.50564728  3876
STARLINK-36459          
1 67427U 26005Z   26037.53659788  .00082271  00000+0  13931-2 0  9996
2 67427  42.9996  56.3750 0001467 262.2726  97.7967 15.50585661  3895
STARLINK-36464          
1 67428U 26005AA  26037.53591120  .00087880  00000+0  14866-2 0  9991
2 67428  42.9997  56.3697 0001555 257.3807 102.6879 15.50586678  3897
STARLINK-36513          
1 67429U 26005AB  26037.53557013  .00092032  00000+0  15558-2 0  9999
2 67429  42.9998  56.3660 0000938 261.5684  98.5070 15.50586663  3893
STARLINK-36515          
1 67430U 26005AC  26037.53625539  .00086355  00000+0  14614-2 0  9993
2 67430  42.9998  56.3722 0001510 262.0623  98.0066 15.50582714  3893
STARLINK-36443          
1 67431U 26005AD  26037.47081026  .00094766  00000+0  16011-2 0  9992
2 67431  43.0004  56.7384 0001405 276.4311  83.6389 15.50589941  3895
STARLINK-36460          
1 67432U 26005AE  26037.53488248  .00083994  00000+0  14219-2 0  9996
2 67432  42.9999  56.3601 0001531 254.2963 105.7728 15.50585473  3891
YAOGAN-50 01            
1 67433U 26006A   26037.58025914  .00000382  00000+0  17514-3 0  9992
2 67433 142.0319 304.6109 0000733 264.3893  95.6743 13.83241433  3342
CZ-6A R/B               
1 67434U 26006B   26037.27694874  .00002009  00000+0  24367-3 0  9998
2 67434 142.0436 317.8823 0203581 255.4720 102.3356 14.62307036  3478
HULIANWANG DIGUI-137    
1 67435U 26007A   26036.88064203  .00000017  00000+0  15997-3 0  9999
2 67435  50.0142 202.3826 0000579  45.0466 315.0474 13.76593365  3238
HULIANWANG DIGUI-138    
1 67436U 26007B   26036.88607189  .00000012  00000+0  15663-3 0  9991
2 67436  50.0095 202.4131 0000983  37.3200 322.7760 13.76232388  3233
HULIANWANG DIGUI-139    
1 67437U 26007C   26037.39141237  .00000048  00000+0  19328-3 0  9997
2 67437  50.0002 200.4092 0000256  48.4286 311.6628 13.76139378  3309
HULIANWANG DIGUI-140    
1 67438U 26007D   26036.74390981  .00000037  00000+0  18195-3 0  9997
2 67438  49.9963 202.9792 0002852 211.2197 148.8526 13.76236204  3215
HULIANWANG DIGUI-141    
1 67439U 26007E   26036.73200082  .00000018  00000+0  16055-3 0  9991
2 67439  49.9987 202.9119 0001299 218.1167 141.9634 13.76973880  3214
HULIANWANG DIGUI-142    
1 67440U 26007F   26037.60002707 -.00000138  00000+0  31531-5 0  9996
2 67440  50.0084 199.5636 0002601 349.6156  10.4682 13.76211146  3334
HULIANWANG DIGUI-143    
1 67441U 26007G   26036.72575335  .00000017  00000+0  15813-3 0  9999
2 67441  50.0043 202.9091 0001968 333.4501  26.6291 13.77546602  3215
HULIANWANG DIGUI-144    
1 67442U 26007H   26037.52110464  .00000002  00000+0  14511-3 0  9995
2 67442  50.0079 199.7850 0002686 339.9783  20.1004 13.76725530  3323
HULIANWANG DIGUI-145    
1 67443U 26007J   26037.00955406  .00000023  00000+0  16497-3 0  9990
2 67443  50.0082 201.7399 0000113 336.5379  23.5508 13.77241786  3252
CZ-8A R/B               
1 67444U 26007K   26037.65421358 -.00000050  00000+0  53212-4 0  9994
2 67444  50.0085 195.1119 0092215 165.4012 194.9592 14.13551628  3390
STARLINK-36542          
1 67445U 26008A   26037.91671296 -.02360889  00000+0 -43007-1 0  9993
2 67445  43.0002  20.7832 0000959 268.1144 163.0556 15.52468836  4859
STARLINK-36539          
1 67446U 26008B   26037.91671296 -.02052691  00000+0 -34480-1 0  9998
2 67446  43.0003  20.6970 0001202 267.8498 198.6217 15.54166198  4859
STARLINK-36440          
1 67447U 26008C   26035.39396356 -.00618888  00000+0 -44540-2 0  9993
2 67447  42.9995  35.5635 0000730 302.0276  58.0522 15.74395349  4450
STARLINK-36423          
1 67448U 26008D   26037.91671296  .00126675  00000+0  21382-2 0  9998
2 67448  43.0004  20.8952 0001729 245.5898 139.7951 15.50474413  4854
STARLINK-36519          
1 67449U 26008E   26037.91671296 -.02004183  00000+0 -27714-1 0  9996
2 67449  43.0005  20.4802 0000710 250.9666 302.7682 15.59801507  4858
STARLINK-36525          
1 67450U 26008F   26037.91671296 -.01790946  00000+0 -32683-1 0  9997
2 67450  43.0000  20.7674 0001518 262.0246 174.9695 15.51988569  4859
STARLINK-36511          
1 67451U 26008G   26037.91671296 -.00018450  00000+0 -30957-3 0  9994
2 67451  43.0002  20.8680 0001428 258.6343 137.6614 15.50563322  4851
